{
  "norad_id": 53601,
  "name": "STARLINK-4675",
  "history": [
    {
      "epoch": "2026-03-28T14:42:31.796928",
      "apogee_km": 540.6164189507699,
      "perigee_km": 538.8523617462306,
      "latitude_deg": 16.21238861106394,
      "longitude_deg": -41.064670080086216,
      "semi_major_axis_km": 6917.8713903484995,
      "eccentricity": 0.0001275,
      "inclination_deg": 53.2171,
      "raan_deg": 159.0252,
      "arg_perigee_deg": 96.4175,
      "mean_anomaly_deg": 263.6962,
      "mean_motion_rev_day": 15.08842944
    }
  ]
}